{"fetched_at":"2026-03-29T02:12:04Z","count":15717,"tles":[{"name":"STARLINK-32673","line1":"1 63000U 25031V   26087.58327120  .00026539  00000+0  97032-3 0  9999","line2":"2 63000  42.9992  36.7305 0001016  50.2899 309.8042 15.27585215 63984","category":"Starlink"}]}